XINGWANG2_L_00010020-01
1 11140U 26828TU  26075.69964120  .00000000  00000+0  00000-0 0  9999
2 11140  60.0000 114.0000 0000000   0.0000   7.6000 15.19285083    17
XINGWANG2_L_00010020-02
1 11141U 25325VM  26075.69964120  .00000000  00000+0  00000-0 0  9991
2 11141  60.0000 114.0000 0000000   0.0000  13.6000 15.19285083    15
XINGWANG2_L_00010020-03
1 11142U 26112PO  26075.69964120  .00000000  00000+0  00000-0 0  9997
2 11142  60.0000 114.0000 0000000   0.0000  19.6000 15.19285083    12
XINGWANG2_L_00010020-04
1 11143U 23934F   26075.69964120  .00000000  00000+0  00000-0 0  9997
2 11143  60.0000 114.0000 0000000   0.0000  25.6000 15.19285083    10
XINGWANG2_L_00010020-05
1 11144U 24799UZ  26075.69964120  .00000000  00000+0  00000-0 0  9998
2 11144  60.0000 114.0000 0000000   0.0000  31.6000 15.19285083    18
XINGWANG2_L_00010020-06
1 11145U 23793WE  26075.69964120  .00000000  00000+0  00000-0 0  9992
2 11145  60.0000 114.0000 0000000   0.0000  37.6000 15.19285083    15
XINGWANG2_L_00010020-07
1 11146U 26276VP  26075.69964120  .00000000  00000+0  00000-0 0  9992
2 11146  60.0000 114.0000 0000000   0.0000  43.6000 15.19285083    13
XINGWANG2_L_00010020-08
1 11147U 25013PQ  26075.69964120  .00000000  00000+0  00000-0 0  9991
2 11147  60.0000 114.0000 0000000   0.0000  49.6000 15.19285083    10
XINGWANG2_L_00010020-09
1 11148U 22515XT  26075.69964120  .00000000  00000+0  00000-0 0  9996
2 11148  60.0000 114.0000 0000000   0.0000  55.6000 15.19285083    18
XINGWANG2_L_00010020-10
1 11149U 24197IA  26075.69964120  .00000000  00000+0  00000-0 0  9995
2 11149  60.0000 114.0000 0000000   0.0000  61.6000 15.19285083    16
XINGWANG2_L_00010020-11
1 11150U 25921C   26075.69964120  .00000000  00000+0  00000-0 0  9993
2 11150  60.0000 114.0000 0000000   0.0000  67.6000 15.19285083    14
XINGWANG2_L_00010020-12
1 11151U 22986TB  26075.69964120  .00000000  00000+0  00000-0 0  9992
2 11151  60.0000 114.0000 0000000   0.0000  73.6000 15.19285083    12
XINGWANG2_L_00010020-13
1 11152U 23479WR  26075.69964120  .00000000  00000+0  00000-0 0  9991
2 11152  60.0000 114.0000 0000000   0.0000  79.6000 15.19285083    19
XINGWANG2_L_00010020-14
1 11153U 26332KJ  26075.69964120  .00000000  00000+0  00000-0 0  9993
2 11153  60.0000 114.0000 0000000   0.0000  85.6000 15.19285083    17
XINGWANG2_L_00010020-15
1 11154U 26267QM  26075.69964120  .00000000  00000+0  00000-0 0  9991
2 11154  60.0000 114.0000 0000000   0.0000  91.6000 15.19285083    15
XINGWANG2_L_00010020-16
1 11155U 24302WN  26075.69964120  .00000000  00000+0  00000-0 0  9990
2 11155  60.0000 114.0000 0000000   0.0000  97.6000 15.19285083    12
XINGWANG2_L_00010020-17
1 11156U 26214MS  26075.69964120  .00000000  00000+0  00000-0 0  9995
2 11156  60.0000 114.0000 0000000   0.0000 103.6000 15.19285083    11
XINGWANG2_L_00010020-18
1 11157U 26584OW  26075.69964120  .00000000  00000+0  00000-0 0  9996
2 11157  60.0000 114.0000 0000000   0.0000 109.6000 15.19285083    18
XINGWANG2_L_00010020-19
1 11158U 23678JD  26075.69964120  .00000000  00000+0  00000-0 0  9998
2 11158  60.0000 114.0000 0000000   0.0000 115.6000 15.19285083    16
XINGWANG2_L_00010020-20
1 11159U 23031LY  26075.69964120  .00000000  00000+0  00000-0 0  9992
2 11159  60.0000 114.0000 0000000   0.0000 121.6000 15.19285083    14
XINGWANG2_L_00010020-21
1 11160U 25678CH  26075.69964120  .00000000  00000+0  00000-0 0  9993
2 11160  60.0000 114.0000 0000000   0.0000 127.6000 15.19285083    12
XINGWANG2_L_00010020-22
1 11161U 26053UQ  26075.69964120  .00000000  00000+0  00000-0 0  9992
2 11161  60.0000 114.0000 0000000   0.0000 133.6000 15.19285083    10
XINGWANG2_L_00010020-23
1 11162U 23739AU  26075.69964120  .00000000  00000+0  00000-0 0  9991
2 11162  60.0000 114.0000 0000000   0.0000 139.6000 15.19285083    17
XINGWANG2_L_00010020-24
1 11163U 22990WI  26075.69964120  .00000000  00000+0  00000-0 0  9990
2 11163  60.0000 114.0000 0000000   0.0000 145.6000 15.19285083    15
XINGWANG2_L_00010020-25
1 11164U 23740ML  26075.69964120  .00000000  00000+0  00000-0 0  9995
2 11164  60.0000 114.0000 0000000   0.0000 151.6000 15.19285083    13
XINGWANG2_L_00010020-26
1 11165U 23162FP  26075.69964120  .00000000  00000+0  00000-0 0  9994
2 11165  60.0000 114.0000 0000000   0.0000 157.6000 15.19285083    10
XINGWANG2_L_00010020-27
1 11166U 23652DT  26075.69964120  .00000000  00000+0  00000-0 0  9999
2 11166  60.0000 114.0000 0000000   0.0000 163.6000 15.19285083    18
XINGWANG2_L_00010020-28
1 11167U 25171AD  26075.69964120  .00000000  00000+0  00000-0 0  9998
2 11167  60.0000 114.0000 0000000   0.0000 169.6000 15.19285083    15
XINGWANG2_L_00010020-29
1 11168U 23284DD  26075.69964120  .00000000  00000+0  00000-0 0  9992
2 11168  60.0000 114.0000 0000000   0.0000 175.6000 15.19285083    13
XINGWANG2_L_00010020-30
1 11169U 26532KJ  26075.69964120  .00000000  00000+0  00000-0 0  9992
2 11169  60.0000 114.0000 0000000   0.0000 181.6000 15.19285083    11
XINGWANG2_L_00010020-31
1 11170U 25095PA  26075.69964120  .00000000  00000+0  00000-0 0  9997
2 11170  60.0000 114.0000 0000000   0.0000 187.6000 15.19285083    19
XINGWANG2_L_00010020-32
1 11171U 23166VA  26075.69964120  .00000000  00000+0  00000-0 0  9995
2 11171  60.0000 114.0000 0000000   0.0000 193.6000 15.19285083    17
XINGWANG2_L_00010020-33
1 11172U 24578WO  26075.69964120  .00000000  00000+0  00000-0 0  9994
2 11172  60.0000 114.0000 0000000   0.0000 199.6000 15.19285083    14
XINGWANG2_L_00010020-34
1 11173U 23067PX  26075.69964120  .00000000  00000+0  00000-0 0  9997
2 11173  60.0000 114.0000 0000000   0.0000 205.6000 15.19285083    13
XINGWANG2_L_00010020-35
1 11174U 23991D   26075.69964120  .00000000  00000+0  00000-0 0  9994
2 11174  60.0000 114.0000 0000000   0.0000 211.6000 15.19285083    11
XINGWANG2_L_00010020-36
1 11175U 23532HA  26075.69964120  .00000000  00000+0  00000-0 0  9996
2 11175  60.0000 114.0000 0000000   0.0000 217.6000 15.19285083    18
XINGWANG2_L_00010020-37
1 11176U 25097TA  26075.69964120  .00000000  00000+0  00000-0 0  9995
2 11176  60.0000 114.0000 0000000   0.0000 223.6000 15.19285083    16
XINGWANG2_L_00010020-38
1 11177U 25304HQ  26075.69964120  .00000000  00000+0  00000-0 0  9997
2 11177  60.0000 114.0000 0000000   0.0000 229.6000 15.19285083    13
XINGWANG2_L_00010020-39
1 11178U 22446PZ  26075.69964120  .00000000  00000+0  00000-0 0  9992
2 11178  60.0000 114.0000 0000000   0.0000 235.6000 15.19285083    11
XINGWANG2_L_00010020-40
1 11179U 23045NS  26075.69964120  .00000000  00000+0  00000-0 0  9999
2 11179  60.0000 114.0000 0000000   0.0000 241.6000 15.19285083    19
XINGWANG2_L_00010020-41
1 11180U 22871UP  26075.69964120  .00000000  00000+0  00000-0 0  9997
2 11180  60.0000 114.0000 0000000   0.0000 247.6000 15.19285083    17
XINGWANG2_L_00010020-42
1 11181U 26868OW  26075.69964120  .00000000  00000+0  00000-0 0  9998
2 11181  60.0000 114.0000 0000000   0.0000 253.6000 15.19285083    15
XINGWANG2_L_00010020-43
1 11182U 26524NC  26075.69964120  .00000000  00000+0  00000-0 0  9998
2 11182  60.0000 114.0000 0000000   0.0000 259.6000 15.19285083    12
XINGWANG2_L_00010020-44
1 11183U 22996VP  26075.69964120  .00000000  00000+0  00000-0 0  9998
2 11183  60.0000 114.0000 0000000   0.0000 265.6000 15.19285083    10
XINGWANG2_L_00010020-45
1 11184U 22287LM  26075.69964120  .00000000  00000+0  00000-0 0  9992
2 11184  60.0000 114.0000 0000000   0.0000 271.6000 15.19285083    18
XINGWANG2_L_00010020-46
1 11185U 26324SN  26075.69964120  .00000000  00000+0  00000-0 0  9999
2 11185  60.0000 114.0000 0000000   0.0000 277.6000 15.19285083    15
XINGWANG2_L_00010020-47
1 11186U 26172VJ  26075.69964120  .00000000  00000+0  00000-0 0  9991
2 11186  60.0000 114.0000 0000000   0.0000 283.6000 15.19285083    13
XINGWANG2_L_00010020-48
1 11187U 24205NH  26075.69964120  .00000000  00000+0  00000-0 0  9997
2 11187  60.0000 114.0000 0000000   0.0000 289.6000 15.19285083    10
XINGWANG2_L_00010020-49
1 11188U 22450YC  26075.69964120  .00000000  00000+0  00000-0 0  9998
2 11188  60.0000 114.0000 0000000   0.0000 295.6000 15.19285083    18
XINGWANG2_L_00010020-50
1 11189U 23835RW  26075.69964120  .00000000  00000+0  00000-0 0  9997
2 11189  60.0000 114.0000 0000000   0.0000 301.6000 15.19285083    17
XINGWANG2_L_00010020-51
1 11190U 22431CB  26075.69964120  .00000000  00000+0  00000-0 0  9990
2 11190  60.0000 114.0000 0000000   0.0000 307.6000 15.19285083    15
XINGWANG2_L_00010020-52
1 11191U 23401AK  26075.69964120  .00000000  00000+0  00000-0 0  9999
2 11191  60.0000 114.0000 0000000   0.0000 313.6000 15.19285083    13
XINGWANG2_L_00010020-53
1 11192U 26308ZM  26075.69964120  .00000000  00000+0  00000-0 0  9999
2 11192  60.0000 114.0000 0000000   0.0000 319.6000 15.19285083    10
XINGWANG2_L_00010020-54
1 11193U 24924MJ  26075.69964120  .00000000  00000+0  00000-0 0  9992
2 11193  60.0000 114.0000 0000000   0.0000 325.6000 15.19285083    18
XINGWANG2_L_00010020-55
1 11194U 26169DY  26075.69964120  .00000000  00000+0  00000-0 0  9996
2 11194  60.0000 114.0000 0000000   0.0000 331.6000 15.19285083    16
XINGWANG2_L_00010020-56
1 11195U 26022MZ  26075.69964120  .00000000  00000+0  00000-0 0  9995
2 11195  60.0000 114.0000 0000000   0.0000 337.6000 15.19285083    13
XINGWANG2_L_00010020-57
1 11196U 26434DV  26075.69964120  .00000000  00000+0  00000-0 0  9993
2 11196  60.0000 114.0000 0000000   0.0000 343.6000 15.19285083    11
XINGWANG2_L_00010020-58
1 11197U 25440VK  26075.69964120  .00000000  00000+0  00000-0 0  9990
2 11197  60.0000 114.0000 0000000   0.0000 349.6000 15.19285083    18
XINGWANG2_L_00010020-59
1 11198U 23775BL  26075.69964120  .00000000  00000+0  00000-0 0  9990
2 11198  60.0000 114.0000 0000000   0.0000 355.6000 15.19285083    16
XINGWANG2_L_00010020-60
1 11199U 23957YC  26075.69964120  .00000000  00000+0  00000-0 0  9993
2 11199  60.0000 114.0000 0000000   0.0000   1.6000 15.19285083    15
